{
  "norad_id": 63268,
  "name": "STARLINK-11641 [DTC]",
  "history": [
    {
      "epoch": "2026-03-28T10:47:05.237952Z",
      "apogee_km": 356.8859298102716,
      "perigee_km": 355.64801167236965,
      "latitude_deg": -5.300150461516871e-06,
      "longitude_deg": 11.175718279833248,
      "height_km": 355.5048673508534,
      "semi_major_axis_km": 6734.40397074132,
      "eccentricity": 9.191e-05,
      "inclination_deg": 43.0008,
      "raan_deg": 358.8172,
      "arg_perigee_deg": 30.5708,
      "mean_anomaly_deg": 329.5213,
      "mean_motion_rev_day": 15.70919806
    },
    {
      "epoch": "2026-03-29T05:05:47.530752Z",
      "apogee_km": 357.4149537757621,
      "perigee_km": 355.34745668675623,
      "latitude_deg": 1.730935321103471e-05,
      "longitude_deg": 91.14638551415322,
      "height_km": 355.9071798762955,
      "semi_major_axis_km": 6734.518205231259,
      "eccentricity": 0.0001535,
      "inclination_deg": 43.0007,
      "raan_deg": 354.2161,
      "arg_perigee_deg": 283.8042,
      "mean_anomaly_deg": 76.2655,
      "mean_motion_rev_day": 15.70879836
    },
    {
      "epoch": "2026-03-30T02:27:38.159136Z",
      "apogee_km": 357.5642619328346,
      "perigee_km": 353.9648568713028,
      "latitude_deg": 3.2363279238265704e-05,
      "longitude_deg": 124.44245957649206,
      "height_km": 355.580437130061,
      "semi_major_axis_km": 6733.901559402068,
      "eccentricity": 0.00026726,
      "inclination_deg": 43.0006,
      "raan_deg": 348.8505,
      "arg_perigee_deg": 268.6485,
      "mean_anomaly_deg": 91.4077,
      "mean_motion_rev_day": 15.71095617
    },
    {
      "epoch": "2026-03-30T20:46:20.985024Z",
      "apogee_km": 357.41989077899234,
      "perigee_km": 355.19738902891186,
      "latitude_deg": -3.692610624996806e-05,
      "longitude_deg": -155.58479747784878,
      "height_km": 356.334364976077,
      "semi_major_axis_km": 6734.445639903952,
      "eccentricity": 0.00016501,
      "inclination_deg": 42.9992,
      "raan_deg": 344.2538,
      "arg_perigee_deg": 256.8273,
      "mean_anomaly_deg": 103.241,
      "mean_motion_rev_day": 15.70905226
    },
    {
      "epoch": "2026-03-31T02:52:35.594688Z",
      "apogee_km": 357.24408655762636,
      "perigee_km": 355.47102883047774,
      "latitude_deg": 4.540942384214892e-06,
      "longitude_deg": 111.06918870107776,
      "height_km": 356.4912344703831,
      "semi_major_axis_km": 6734.494557694052,
      "eccentricity": 0.00013164,
      "inclination_deg": 42.9992,
      "raan_deg": 342.7193,
      "arg_perigee_deg": 245.9319,
      "mean_anomaly_deg": 114.1411,
      "mean_motion_rev_day": 15.7088811
    },
    {
      "epoch": "2026-04-01T09:23:48.242976Z",
      "apogee_km": 356.77500350968967,
      "perigee_km": 355.8887474056801,
      "latitude_deg": -2.8346906068932976e-06,
      "longitude_deg": 4.348262096720064,
      "height_km": 355.73275281861584,
      "semi_major_axis_km": 6734.468875457685,
      "eccentricity": 6.58e-05,
      "inclination_deg": 42.9994,
      "raan_deg": 335.0545,
      "arg_perigee_deg": 33.4161,
      "mean_anomaly_deg": 326.6748,
      "mean_motion_rev_day": 15.70897096
    },
    {
      "epoch": "2026-04-01T23:07:49.282176Z",
      "apogee_km": 357.8708397128612,
      "perigee_km": 354.31651276194316,
      "latitude_deg": 1.6664673620117916e-06,
      "longitude_deg": 154.33011778829407,
      "height_km": 356.5692158044122,
      "semi_major_axis_km": 6734.230676237402,
      "eccentricity": 0.0002639,
      "inclination_deg": 42.9981,
      "raan_deg": 331.6047,
      "arg_perigee_deg": 246.7107,
      "mean_anomaly_deg": 113.3483,
      "mean_motion_rev_day": 15.70980444
    },
    {
      "epoch": "2026-04-02T22:01:12.006048Z",
      "apogee_km": 356.74115325358434,
      "perigee_km": 354.80044102644933,
      "latitude_deg": 1.9246162947735473e-05,
      "longitude_deg": 164.29631008181016,
      "height_km": 356.20147678623033,
      "semi_major_axis_km": 6733.907797140017,
      "eccentricity": 0.0001441,
      "inclination_deg": 42.9989,
      "raan_deg": 325.8556,
      "arg_perigee_deg": 132.9313,
      "mean_anomaly_deg": 227.1676,
      "mean_motion_rev_day": 15.71093434
    },
    {
      "epoch": "2026-04-03T16:19:55.587072Z",
      "apogee_km": 357.3753226998879,
      "perigee_km": 354.98733342075775,
      "latitude_deg": 1.0763933269315361e-05,
      "longitude_deg": -115.7372380206416,
      "height_km": 356.8853885896039,
      "semi_major_axis_km": 6734.3183280603225,
      "eccentricity": 0.0001773,
      "inclination_deg": 42.9982,
      "raan_deg": 321.2557,
      "arg_perigee_deg": 218.6704,
      "mean_anomaly_deg": 141.4037,
      "mean_motion_rev_day": 15.70949773
    },
    {
      "epoch": "2026-04-04T21:19:34.098240Z",
      "apogee_km": 357.57502548857883,
      "perigee_km": 355.43475629565364,
      "latitude_deg": -3.796987047270006e-05,
      "longitude_deg": 160.87910340643813,
      "height_km": 357.2922952288046,
      "semi_major_axis_km": 6734.641890892116,
      "eccentricity": 0.0001589,
      "inclination_deg": 43.0004,
      "raan_deg": 313.9733,
      "arg_perigee_deg": 161.8473,
      "mean_anomaly_deg": 198.2451,
      "mean_motion_rev_day": 15.70836561
    },
    {
      "epoch": "2026-04-05T00:22:41.708928Z",
      "apogee_km": 357.67234507494504,
      "perigee_km": 355.4333300915423,
      "latitude_deg": -2.033082149105824e-05,
      "longitude_deg": 114.20666500935785,
      "height_km": 356.7890586315872,
      "semi_major_axis_km": 6734.689837583243,
      "eccentricity": 0.00016623,
      "inclination_deg": 42.9994,
      "raan_deg": 313.2079,
      "arg_perigee_deg": 245.5247,
      "mean_anomaly_deg": 114.5447,
      "mean_motion_rev_day": 15.70819786
    },
    {
      "epoch": "2026-04-06T22:09:29.084256Z",
      "apogee_km": 357.9418027923275,
      "perigee_km": 354.7456182471142,
      "latitude_deg": -3.2844341044559644e-05,
      "longitude_deg": 134.13153974723545,
      "height_km": 356.4428216329155,
      "semi_major_axis_km": 6734.480710519721,
      "eccentricity": 0.0002373,
      "inclination_deg": 43.0013,
      "raan_deg": 301.7103,
      "arg_perigee_deg": 258.2347,
      "mean_anomaly_deg": 101.8254,
      "mean_motion_rev_day": 15.70892955
    },
    {
      "epoch": "2026-04-08T13:50:02.495328Z",
      "apogee_km": 357.13085372624846,
      "perigee_km": 355.2530534408306,
      "latitude_deg": -1.789715279504271e-08,
      "longitude_deg": -112.60277621776588,
      "height_km": 355.9226201034366,
      "semi_major_axis_km": 6734.328953583539,
      "eccentricity": 0.00013942,
      "inclination_deg": 42.9992,
      "raan_deg": 291.7446,
      "arg_perigee_deg": 272.5443,
      "mean_anomaly_deg": 87.5265,
      "mean_motion_rev_day": 15.70946055
    }
  ]
}